0 COSMOS 1524
1 14613U 84001C   13281.42015402 -.00000031  00000-0 -88247-4 0  2577
2 14613 074.0086 174.5579 0031504 149.0823 326.1953 12.56673685365271
0 COSMOS 1524
1 14613U 84001C   13283.47661355 -.00000003  00000-0  76450-4 0  2580
2 14613 074.0084 171.7876 0031480 145.8991 269.7294 12.56673454365534
0 COSMOS 1524
1 14613U 84001C   13285.79807875  .00000031  00000-0  28530-3 0  2592
2 14613 074.0080 168.6604 0031447 142.3254 332.1426 12.56673303365828
0 COSMOS 1524
1 14613U 84001C   13288.10581355  .00000039  00000-0  33032-3 0  2605
2 14613 074.0074 165.5517 0031425 138.7316 332.4780 12.56673445366110
0 COSMOS 1524
1 14613U 84001C   13290.48414381  .00000005  00000-0  12978-3 0  2613
2 14613 074.0069 162.3477 0031402 135.0513 292.1686 12.56673903366417
0 COSMOS 1524
1 14613U 84001C   13292.80638432 -.00000029  00000-0 -78407-4 0  2625
2 14613 074.0066 159.2191 0031387 131.4552 358.1119 12.56674124366709
0 COSMOS 1524
1 14613U 84001C   13295.11287242 -.00000025  00000-0 -55682-4 0  2638
2 14613 074.0065 156.1117 0031378 127.8786 352.7981 12.56674003366994
